OSCAR 7 (AO-7)          
1 07530U 74089B   26200.48277588 -.00000048  00000+0 -10024-4 0  9996
2 07530 101.9907 214.0660 0012638  70.4419  88.9392 12.53698645364560
PHASE 3B (AO-10)        
1 14129U 83058B   26198.95931596 -.00000201  00000+0  00000+0 0  9996
2 14129  25.9392 214.4954 6000614 124.1231 307.7423  2.05871393296123
UOSAT 2 (UO-11)         
1 14781U 84021B   26200.43824507  .00000613  00000+0  67892-4 0  9994
2 14781  97.8080 165.6581 0009230  79.6657 280.5602 14.90854404261934
LUSAT (LO-19)           
1 20442U 90005G   26200.48477854  .00000020  00000+0  23830-4 0  9994
2 20442  98.8846 223.1792 0012634 109.9055 250.3491 14.34131448907023
EYESAT A (AO-27)        
1 22825U 93061C   26200.16474111  .00000029  00000+0  27888-4 0  9990
2 22825  98.6864 267.5640 0008539  14.7402 345.4028 14.30949715711575
ITAMSAT (IO-26)         
1 22826U 93061D   26200.41421769  .00000024  00000+0  25972-4 0  9997
2 22826  98.6814 267.7342 0008700 356.7861   3.3264 14.31377441711923
RADIO ROSTO (RS15)      
1 23439U 94085A   26200.57618643 -.00000035  00000+0  21514-3 0  9991
2 23439  64.8143 250.8352 0157088 357.9036   2.1213 11.27583575299559
JAS-2 (FO-29)           
1 24278U 96046B   26200.47184427 -.00000043  00000+0 -81589-5 0  9999
2 24278  98.5218  44.9182 0350156  12.8574 348.1218 13.53275816477537
TECHSAT 1B (GO-32)      
1 25397U 98043D   26200.44634488  .00000001  00000+0  20729-4 0  9995
2 25397  99.0088 194.0215 0002289 108.4800 251.6627 14.24433824455925
ISS (ZARYA)             
1 25544U 98067A   26200.25015283  .00004118  00000+0  82726-4 0  9998
2 25544  51.6315 141.4207 0006817 313.5383  46.5039 15.49048208576725
PCSAT (NO-44)           
1 26931U 01043C   26200.28807483  .00000025  00000+0  40157-4 0  9996
2 26931  67.0498 161.2434 0005870 266.8644  93.1786 14.31965883295046
SAUDISAT 1C (SO-50)     
1 27607U 02058C   26200.52213065  .00000353  00000+0  59687-4 0  9990
2 27607  64.5520  28.9362 0074394 256.4806 102.8004 14.83102948269253
CUTE-1 (CO-55)          
1 27844U 03031E   26200.49154011  .00000118  00000+0  70118-4 0  9997
2 27844  98.6745 208.6450 0010868  91.6414 268.6010 14.24353085196272
CUBESAT XI-IV (CO-57)   
1 27848U 03031J   26200.49623929  .00000096  00000+0  61252-4 0  9994
2 27848  98.6776 208.3362 0010654 108.0973 252.1367 14.23635874195972
MOZHAETS 4 (RS22)       
1 27939U 03042A   26200.60913804 -.00000037  00000+0  26554-5 0  9997
2 27939  98.3478  25.8857 0011576 159.4525 291.6346 14.73516906220329
CUBESAT XI-V            
1 28895U 05043F   26200.40443851  .00000628  00000+0  10669-3 0  9993
2 28895  98.3022 356.7103 0015347 102.9295 257.3627 14.72708170106490
CUTE-1.7+APD II (CO-65) 
1 32785U 08021C   26200.59543305  .00001938  00000+0  12438-3 0  9991
2 32785  97.8299 182.6987 0006828 281.1298  78.9163 15.09721824990086
SEEDS II (CO-66)        
1 32791U 08021J   26200.43979132  .00009500  00000+0  29358-3 0  9994
2 32791  97.7533 199.9049 0003546 147.5625 212.5835 15.33752550992234
YUBILEINY (RS30)        
1 32953U 08025A   26200.61160834 -.00000059  00000+0 -49221-3 0  9992
2 32953  82.5070 335.2697 0018725 238.7793 121.1452 12.43180323823728
KKS-1 (KISEKI)          
1 33499U 09002H   26200.43714578  .00000607  00000+0  81163-4 0  9993
2 33499  98.1171 123.3902 0007770 174.9932 185.1360 14.83194728940973
SWISSCUBE               
1 35932U 09051B   26200.52945481  .00000424  00000+0  93264-4 0  9992
2 35932  98.4003 108.9777 0008011 107.5218 252.6859 14.62535142893887
BEESAT-1                
1 35933U 09051C   26200.28201476  .00000366  00000+0  83262-4 0  9997
2 35933  98.3929 108.2939 0006330 119.2853 240.8981 14.61765433893875
ITUPSAT1                
1 35935U 09051E   26200.30105315  .00000332  00000+0  78497-4 0  9994
2 35935  98.4014 107.4706 0008328 131.6954 228.4959 14.60482021893421
XIWANG-1 (HOPE-1)       
1 36122U 09072B   26200.61950485  .00000097  00000+0  37145-3 0  9998
2 36122 100.4044 153.9364 0007669 154.7940 205.3548 13.16439744797279
O/OREOS (USA 219)       
1 37224U 10062C   26200.47411265  .00000963  00000+0  96456-4 0  9998
2 37224  71.9701   7.1939 0014256 356.8061   3.3016 14.93860482121463
JUGNU                   
1 37839U 11058B   26200.12135484  .00000352  00000+0  44497-4 0  9994
2 37839  19.9601 114.4089 0018621  69.5646 319.8172 14.13784159763559
SRMSAT                  
1 37841U 11058D   26200.47281080  .00000323  00000+0  31520-4 0  9990
2 37841  19.9703 224.0535 0011622 198.3293 313.0958 14.11581587762388
STRAND-1                
1 39090U 13009E   26200.49956115  .00000108  00000+0  50737-4 0  9998
2 39090  98.3939  19.9412 0009610 129.5054 230.6984 14.37180292701706
ZACUBE-1 (TSHEPISOSAT)  
1 39417U 13066B   26200.46684057  .00001295  00000+0  10340-3 0  9997
2 39417  97.8002 162.9610 0044074 141.4963 218.9420 15.01340040685579
GOMX-1                  
1 39430U 13066Q   26200.59698182  .00000660  00000+0  10611-3 0  9996
2 39430  97.6464  39.0142 0127831 334.0447  25.4384 14.69548620674674
